#dP2018  4 12  0  0  0.00000000      96 __u+U ITR00 FIT  IAC
## 1996 345600.00000000   900.00000000 58220 0.0000000000000
+   88   C01C02C03C04C05C06C07C08C09C10C11C12C13C14E01E02E03
+        E04E05E07E08E09E11E12E14E18E19E24E26E30G01G02G03G04
+        G05G06G07G08G09G10G11G12G13G14G15G16G17G18G19G20G21
+        G22G23G24G25G26G27G28G29G30G31G32J01J02J03R01R02R03
+        R04R05R07R08R09R10R11R13R14R15R16R17R18R19R20R21R22
+        R23R24R26  0  0  0  0  0  0  0  0  0  0  0  0  0  0
++         0  0  0  0  0  0  0  0  0  0  0  0  0  0  0  0  0
++         0  0  0  0  0  0  0  0  0  0  0  0  0  0  0  0  0
++         0  0  0  0  0  0  0  0  0  0  0  0  0  0  0  0  0
++         0  0  0  0  0  0  0  0  0  0  0  0  0  0  0  0  0
++         0  0  0  0  0  0  0  0  0  0  0  0  0  0  0  0  0
++         0  0  0  0  0  0  0  0  0  0  0  0  0  0  0  0  0
%c M  cc GPS ccc cccc cccc cccc cccc ccccc ccccc ccccc ccccc
%c cc cc ccc ccc cccc cccc cccc cccc ccccc ccccc ccccc ccccc
%f  0.0000000  0.000000000  0.00000000000  0.000000000000000
%f  0.0000000  0.000000000  0.00000000000  0.000000000000000
%i    0    0    0    0      0      0      0      0         0
%i    0    0    0    0      0      0      0      0         0
/*                                                          
/*   RSA / INFORMATION & ANALYSIS CENTER (IAC) OF MCC       
/*   ULTRA-RAPID DETERMINATION                              
/* PCV:IGS14_1992 OL/AL:FES2004  NONE     YN ORB:CoN CLK:CoN
*  2018 04 12 12 45  0.00000000
PC01 -32333.222225  27048.377298    110.325658    602.265262
PC02   4379.893862  41933.050559    705.828018    610.972745
PC03 -14829.920997  39495.819721    745.789416   -141.438418
PC04 -39602.144031  14487.720824    328.492931     21.411970
PC05  21883.544757  36048.116390    772.239897     60.625750
PC06 -24063.072185  26551.251731 -22202.654855    838.416951
PC07 -13001.769676  38035.870441 -11818.291895    191.974960
PC08  -8920.453154  20999.650925  35549.294574    281.780878
PC09      0.000000      0.000000      0.000000 999999.999999
PC10  -3837.501565  41799.339506    173.656311   -152.206896
PC11  26592.444006     -2.340334  -8515.723251   -465.117456
PC12  23283.042066  11708.489670  10150.940772    413.144727
PC13   5750.253840  29544.418760  29639.838597   -285.783045
PC14  21694.880446  -8300.952575 -15363.643124    388.112734
PE01 -12067.139407 -18764.874196 -19459.450550   -319.949725
PE02  12068.381202  18756.043530  19460.265728     10.376993
PE03  17370.393985   8752.753727 -22308.765958    -20.179302
PE04 -27238.497100   6875.643812   9343.834501    -12.951128
PE05  -2725.312179  19321.182261 -22254.442156    285.966164
PE07  21155.050918 -18558.703026   9193.580449     51.575600
PE08  27138.291640  -7188.532597  -9385.259969   6605.820462
PE09 -21040.968729  18683.657938  -9160.744471   6822.179163
PE11 -11749.912667  12036.572719  24360.556962   1835.956493
PE12 -25387.964562  -3905.612129  14740.672341   3921.145972
PE14  16471.544571  10972.261745  13187.725317   6600.309471
PE18 -16825.035356 -17821.308060 -21100.730703   6287.798341
PE19 -15722.505022  -9935.974944  23036.103455     21.260064
PE24 -10819.906223  23001.053348 -15198.326155   6763.126469
PE26  -8089.060568 -20641.305733 -19607.215099   6058.649260
PE30  16217.135502  -3042.979594  24560.167203   5926.544779
PG01 -18922.560045  -7844.204522  16928.610269    -40.213202
PG02  13942.154739  22623.257925   3123.453003    146.840242
PG03 -16960.979812   2136.947048  20296.513942     49.029183
PG04   7038.851838 -24270.302471  -7923.307495     51.729501
PG05   6639.113133  17518.351738 -18847.074746    -10.042889
PG06   3455.388670  22408.902695  13847.286438    409.169182
PG07 -12641.980180   8367.226602 -21593.183180    208.657024
PG08 -24121.077467  -5176.228705  -9980.254001    -97.575812
PG09 -23026.320161   8735.034029  -9996.535382    510.866565
PG10  10376.626260 -24258.561810   2234.459682    178.317853
PG11 -23752.879877  -6926.677187   8901.207607   -737.462140
PG12  15643.591634   1013.161719  21217.448924    340.019297
PG13  16753.339844  12414.585107 -16561.326092    -95.145118
PG14  -2062.021983 -15321.410020  21896.985048    -96.080543
PG15  24646.272823   3952.893135  -9827.857140   -355.542658
PG16  -4406.414741 -17485.806932 -19496.927961     27.890452
PG17  -7632.712153  14322.033661  21384.906141   -107.617067
PG18 -19445.584116 -15092.195670   9761.119716     -4.102601
PG19   -508.921593  14649.539062  21862.380182   -444.221072
PG20  17631.992038  -9017.310884 -17817.550678    505.595788
PG21   9542.999708 -12382.599731 -20673.768797   -408.329399
PG22 -14598.951122  -6812.345683  21363.035757   -355.339889
PG23 -26679.270553    -78.969507   2736.459167   -218.012160
PG24  20052.977533  10344.954300  14114.740431    -48.425197
PG25  17674.889044 -13257.832358  14383.539253   -568.420441
PG26   2515.566168 -23789.364743 -11403.865594   -185.242121
PG27 -13412.875559 -12335.544174 -19486.281133    370.231028
PG28 -13709.175269  22774.039715    409.890717    705.599781
PG29  25036.416321  -4860.451026  -7399.902449    467.451771
PG30  -6113.597506  17170.296310 -19266.241606     85.495712
PG31  -3788.690383 -22882.764802  12586.393864    129.007602
PG32   8524.891507 -14870.893660  20298.689968   -521.307445
PJ01 -32252.411701  26572.240466  10839.428725   -308.201910
PJ02 -18649.993772  24830.764195 -24272.936479      0.754955
PJ03 -30752.512595  26016.852927  17579.543941    -16.207554
PR01 -19151.889281  16673.582019  -2330.277614     24.711013
PR02  -5666.037476  15826.426217 -19164.177264    304.463719
PR03  10527.438495   5443.603688 -22541.105813    129.244808
PR04  20591.745234  -8508.503753 -12387.433483    256.870147
PR05  18390.984570 -17201.619349   4092.263356   -281.844476
PR07 -10928.027377  -5117.979045  22514.249156    -34.946221
PR08 -20465.654577   7975.019959  13025.967247     22.768267
PR09  -2519.748410 -25388.057485   1232.256411     35.168710
PR10  -9339.656598 -18167.434079 -15354.659664     22.358703
PR11 -11055.804204    113.347516 -22980.275196    -26.258451
PR13   3165.512439  25294.908660   -897.997666     -9.360519
PR14   9501.167009  18242.316285  15086.863841     26.271199
PR15  11018.211864   4227.086602  22628.056799     -8.647277
PR16   5969.323473 -17373.574161  17612.701121     90.053174
PR17  20409.767985  12768.096345   8482.279158    124.122672
PR18  23350.480232   5487.200174  -8559.396722    191.622600
PR19  13328.700920  -4643.071767 -21241.007646    -49.815763
PR20  -5672.153428 -12981.643594 -21217.102876   -334.091333
PR21 -20580.825518 -12627.835816  -8197.003063     21.122953
PR22 -22933.531846  -4508.583356  10387.289885    -34.276950
PR23  -9942.752023   6903.177507  22450.859004    147.288373
PR24   6644.688778  13060.580545  20851.562859   -164.917252
PR26  -5316.916790 -12770.624407 -21412.981820     12.042481
EOF
